CCSDS_OMM_VERS = 2.0
CREATION_DATE  = 
ORIGINATOR     = 

OBJECT_NAME    = HULIANWANG DIGUI-136
OBJECT_ID      = 2025-311J
CENTER_NAME    = EARTH
REF_FRAME      = TEME
TIME_SYSTEM    = UTC
MEAN_ELEMENT_THEORY = SGP/SGP4

EPOCH          = 2026-01-19T12:31:24.282912
MEAN_MOTION    = 13.87669700
ECCENTRICITY   = .00004531
INCLINATION    = 50.0106
RA_OF_ASC_NODE = 298.0118
ARG_OF_PERICENTER = 348.0623
MEAN_ANOMALY   = 12.0264

EPHEMERIS_TYPE = 0
CLASSIFICATION_TYPE = U
NORAD_CAT_ID   = 67244
ELEMENT_SET_NO = 999
REV_AT_EPOCH   = 342
BSTAR          = .13236406E-3
MEAN_MOTION_DOT = .12E-6
MEAN_MOTION_DDOT = 0

CCSDS_OMM_VERS = 2.0
CREATION_DATE  = 
ORIGINATOR     = 

OBJECT_NAME    = CZ-8A R/B
OBJECT_ID      = 2025-311K
CENTER_NAME    = EARTH
REF_FRAME      = TEME
TIME_SYSTEM    = UTC
MEAN_ELEMENT_THEORY = SGP/SGP4

EPOCH          = 2026-01-22T06:11:18.261600
MEAN_MOTION    = 14.12607501
ECCENTRICITY   = .00889026
INCLINATION    = 50.0047
RA_OF_ASC_NODE = 283.1193
ARG_OF_PERICENTER = 175.9540
MEAN_ANOMALY   = 184.2106

EPHEMERIS_TYPE = 0
CLASSIFICATION_TYPE = U
NORAD_CAT_ID   = 67245
ELEMENT_SET_NO = 999
REV_AT_EPOCH   = 386
BSTAR          = .8491661E-5
MEAN_MOTION_DOT = -.138E-5
MEAN_MOTION_DDOT = 0

CCSDS_OMM_VERS = 2.0
CREATION_DATE  = 
ORIGINATOR     = 

OBJECT_NAME    = FENGYUN 4C
OBJECT_ID      = 2025-312A
CENTER_NAME    = EARTH
REF_FRAME      = TEME
TIME_SYSTEM    = UTC
MEAN_ELEMENT_THEORY = SGP/SGP4

EPOCH          = 2026-01-22T05:54:39.492288
MEAN_MOTION    = 1.00269954
ECCENTRICITY   = .00021313
INCLINATION    = 0.0576
RA_OF_ASC_NODE = 240.1787
ARG_OF_PERICENTER = 51.0020
MEAN_ANOMALY   = 52.0211

EPHEMERIS_TYPE = 0
CLASSIFICATION_TYPE = U
NORAD_CAT_ID   = 67246
ELEMENT_SET_NO = 999
REV_AT_EPOCH   = 31
BSTAR          = 0
MEAN_MOTION_DOT = -.309E-5
MEAN_MOTION_DDOT = 0

CCSDS_OMM_VERS = 2.0
CREATION_DATE  = 
ORIGINATOR     = 

OBJECT_NAME    = CZ-3B R/B
OBJECT_ID      = 2025-312B
CENTER_NAME    = EARTH
REF_FRAME      = TEME
TIME_SYSTEM    = UTC
MEAN_ELEMENT_THEORY = SGP/SGP4

EPOCH          = 2026-01-21T00:59:30.181056
MEAN_MOTION    = 2.46672932
ECCENTRICITY   = .71872496
INCLINATION    = 28.3931
RA_OF_ASC_NODE = 324.1620
ARG_OF_PERICENTER = 195.5092
MEAN_ANOMALY   = 118.1369

EPHEMERIS_TYPE = 0
CLASSIFICATION_TYPE = U
NORAD_CAT_ID   = 67247
ELEMENT_SET_NO = 999
REV_AT_EPOCH   = 61
BSTAR          = .68891974E-3
MEAN_MOTION_DOT = .296461E-2
MEAN_MOTION_DDOT = .1377291E-5

CCSDS_OMM_VERS = 2.0
CREATION_DATE  = 
ORIGINATOR     = 

OBJECT_NAME    = 2025-313A
OBJECT_ID      = 2025-313A
CENTER_NAME    = EARTH
REF_FRAME      = TEME
TIME_SYSTEM    = UTC
MEAN_ELEMENT_THEORY = SGP/SGP4

EPOCH          = 2026-01-22T07:16:36.249312
MEAN_MOTION    = 14.66829350
ECCENTRICITY   = .02805527
INCLINATION    = 97.5614
RA_OF_ASC_NODE = 97.9274
ARG_OF_PERICENTER = 85.4286
MEAN_ANOMALY   = 277.8905

EPHEMERIS_TYPE = 0
CLASSIFICATION_TYPE = U
NORAD_CAT_ID   = 67248
ELEMENT_SET_NO = 999
REV_AT_EPOCH   = 363
BSTAR          = .29329127E-3
MEAN_MOTION_DOT = .2913E-4
MEAN_MOTION_DDOT = 0

CCSDS_OMM_VERS = 2.0
CREATION_DATE  = 
ORIGINATOR     = 

OBJECT_NAME    = 2025-313B
OBJECT_ID      = 2025-313B
CENTER_NAME    = EARTH
REF_FRAME      = TEME
TIME_SYSTEM    = UTC
MEAN_ELEMENT_THEORY = SGP/SGP4

EPOCH          = 2026-01-22T06:21:49.730688
MEAN_MOTION    = 14.73271981
ECCENTRICITY   = .02976329
INCLINATION    = 97.5303
RA_OF_ASC_NODE = 98.0194
ARG_OF_PERICENTER = 89.4923
MEAN_ANOMALY   = 274.0379

EPHEMERIS_TYPE = 0
CLASSIFICATION_TYPE = U
NORAD_CAT_ID   = 67249
ELEMENT_SET_NO = 999
REV_AT_EPOCH   = 364
BSTAR          = .38191377E-3
MEAN_MOTION_DOT = .4993E-4
MEAN_MOTION_DDOT = 0

CCSDS_OMM_VERS = 2.0
CREATION_DATE  = 
ORIGINATOR     = 

OBJECT_NAME    = 2025-313C
OBJECT_ID      = 2025-313C
CENTER_NAME    = EARTH
REF_FRAME      = TEME
TIME_SYSTEM    = UTC
MEAN_ELEMENT_THEORY = SGP/SGP4

EPOCH          = 2026-01-22T05:05:26.013696
MEAN_MOTION    = 14.85016287
ECCENTRICITY   = .01621764
INCLINATION    = 97.6340
RA_OF_ASC_NODE = 98.7109
ARG_OF_PERICENTER = 99.3358
MEAN_ANOMALY   = 262.6235

EPHEMERIS_TYPE = 0
CLASSIFICATION_TYPE = U
NORAD_CAT_ID   = 67250
ELEMENT_SET_NO = 999
REV_AT_EPOCH   = 366
BSTAR          = .18087832E-2
MEAN_MOTION_DOT = .19542E-3
MEAN_MOTION_DDOT = 0

CCSDS_OMM_VERS = 2.0
CREATION_DATE  = 
ORIGINATOR     = 

OBJECT_NAME    = 2025-313D
OBJECT_ID      = 2025-313D
CENTER_NAME    = EARTH
REF_FRAME      = TEME
TIME_SYSTEM    = UTC
MEAN_ELEMENT_THEORY = SGP/SGP4

EPOCH          = 2026-01-22T06:38:43.363392
MEAN_MOTION    = 14.88807461
ECCENTRICITY   = .01523897
INCLINATION    = 97.5857
RA_OF_ASC_NODE = 98.7601
ARG_OF_PERICENTER = 91.7080
MEAN_ANOMALY   = 270.1599

EPHEMERIS_TYPE = 0
CLASSIFICATION_TYPE = U
NORAD_CAT_ID   = 67251
ELEMENT_SET_NO = 999
REV_AT_EPOCH   = 368
BSTAR          = .44649439E-3
MEAN_MOTION_DOT = .5137E-4
MEAN_MOTION_DDOT = 0

CCSDS_OMM_VERS = 2.0
CREATION_DATE  = 
ORIGINATOR     = 

OBJECT_NAME    = ZORKIY-2M-VPE
OBJECT_ID      = 2025-313E
CENTER_NAME    = EARTH
REF_FRAME      = TEME
TIME_SYSTEM    = UTC
MEAN_ELEMENT_THEORY = SGP/SGP4

EPOCH          = 2026-01-22T04:58:07.244256
MEAN_MOTION    = 15.21818231
ECCENTRICITY   = .00115751
INCLINATION    = 97.4097
RA_OF_ASC_NODE = 99.2966
ARG_OF_PERICENTER = 133.4271
MEAN_ANOMALY   = 226.7931

EPHEMERIS_TYPE = 0
CLASSIFICATION_TYPE = U
NORAD_CAT_ID   = 67252
ELEMENT_SET_NO = 999
REV_AT_EPOCH   = 375
BSTAR          = .48167969E-3
MEAN_MOTION_DOT = .10896E-3
MEAN_MOTION_DDOT = 0

CCSDS_OMM_VERS = 2.0
CREATION_DATE  = 
ORIGINATOR     = 

OBJECT_NAME    = AIST-2T 1
OBJECT_ID      = 2025-313F
CENTER_NAME    = EARTH
REF_FRAME      = TEME
TIME_SYSTEM    = UTC
MEAN_ELEMENT_THEORY = SGP/SGP4

EPOCH          = 2026-01-22T05:38:59.034336
MEAN_MOTION    = 15.66110059
ECCENTRICITY   = .00106202
INCLINATION    = 97.1011
RA_OF_ASC_NODE = 99.6262
ARG_OF_PERICENTER = 149.7466
MEAN_ANOMALY   = 210.4410

EPHEMERIS_TYPE = 0
CLASSIFICATION_TYPE = U
NORAD_CAT_ID   = 67253
ELEMENT_SET_NO = 999
REV_AT_EPOCH   = 384
BSTAR          = .64636479E-3
MEAN_MOTION_DOT = .66716E-3
MEAN_MOTION_DDOT = 0

CCSDS_OMM_VERS = 2.0
CREATION_DATE  = 
ORIGINATOR     = 

OBJECT_NAME    = AIST-2T 2
OBJECT_ID      = 2025-313G
CENTER_NAME    = EARTH
REF_FRAME      = TEME
TIME_SYSTEM    = UTC
MEAN_ELEMENT_THEORY = SGP/SGP4

EPOCH          = 2026-01-21T18:59:13.112736
MEAN_MOTION    = 15.64973261
ECCENTRICITY   = .00091224
INCLINATION    = 97.1008
RA_OF_ASC_NODE = 99.1724
ARG_OF_PERICENTER = 165.1122
MEAN_ANOMALY   = 195.0409

EPHEMERIS_TYPE = 0
CLASSIFICATION_TYPE = U
NORAD_CAT_ID   = 67254
ELEMENT_SET_NO = 999
REV_AT_EPOCH   = 376
BSTAR          = .41569676E-3
MEAN_MOTION_DOT = .40813E-3
MEAN_MOTION_DDOT = 0

CCSDS_OMM_VERS = 2.0
CREATION_DATE  = 
ORIGINATOR     = 

OBJECT_NAME    = 2025-313H
OBJECT_ID      = 2025-313H
CENTER_NAME    = EARTH
REF_FRAME      = TEME
TIME_SYSTEM    = UTC
MEAN_ELEMENT_THEORY = SGP/SGP4

EPOCH          = 2026-01-22T06:09:56.855520
MEAN_MOTION    = 15.02224928
ECCENTRICITY   = .00915837
INCLINATION    = 97.3072
RA_OF_ASC_NODE = 98.3254
ARG_OF_PERICENTER = 111.7382
MEAN_ANOMALY   = 249.3623

EPHEMERIS_TYPE = 0
CLASSIFICATION_TYPE = U
NORAD_CAT_ID   = 67255
ELEMENT_SET_NO = 999
REV_AT_EPOCH   = 371
BSTAR          = .30722549E-3
MEAN_MOTION_DOT = .4375E-4
MEAN_MOTION_DDOT = 0

