HULIANWANG DIGUI-136    
1 67244U 25311J   26019.52180883  .00000012  00000+0  13236-3 0  9998
2 67244  50.0106 298.0118 0000453 348.0623  12.0264 13.87669700  3425
CZ-8A R/B               
1 67245U 25311K   26022.25785025 -.00000138  00000+0  84917-5 0  9998
2 67245  50.0047 283.1193 0088902 175.9540 184.2106 14.12607501  3863
FENGYUN 4C              
1 67246U 25312A   26022.24629042 -.00000309  00000+0  00000+0 0  9990
2 67246   0.0576 240.1787 0002131  51.0020  52.0211  1.00269954   310
CZ-3B R/B               
1 67247U 25312B   26021.04132154  .00296461  13773-5  68892-3 0  9990
2 67247  28.3931 324.1620 7187249 195.5092 118.1369  2.46672932   618
2025-313A               
1 67248U 25313A   26022.30319733  .00002913  00000+0  29329-3 0  9994
2 67248  97.5614  97.9274 0280552  85.4286 277.8905 14.66829350  3638
2025-313B               
1 67249U 25313B   26022.26515892  .00004993  00000+0  38191-3 0  9991
2 67249  97.5303  98.0194 0297632  89.4923 274.0379 14.73271981  3640
2025-313C               
1 67250U 25313C   26022.21210664  .00019542  00000+0  18088-2 0  9995
2 67250  97.6340  98.7109 0162176  99.3358 262.6235 14.85016287  3668
2025-313D               
1 67251U 25313D   26022.27689078  .00005137  00000+0  44649-3 0  9999
2 67251  97.5857  98.7601 0152389  91.7080 270.1599 14.88807461  3685
ZORKIY-2M-VPE           
1 67252U 25313E   26022.20702829  .00010896  00000+0  48168-3 0  9991
2 67252  97.4097  99.2966 0011575 133.4271 226.7931 15.21818231  3758
AIST-2T 1               
1 67253U 25313F   26022.23540549  .00066716  00000+0  64636-3 0  9994
2 67253  97.1011  99.6262 0010620 149.7466 210.4410 15.66110059  3845
AIST-2T 2               
1 67254U 25313G   26021.79112399  .00040813  00000+0  41570-3 0  9995
2 67254  97.1008  99.1724 0009122 165.1122 195.0409 15.64973261  3763
2025-313H               
1 67255U 25313H   26022.25690805  .00004375  00000+0  30723-3 0  9992
2 67255  97.3072  98.3254 0091583 111.7382 249.3623 15.02224928  3710
